satname,norad_id,inclination_deg,eccentricity,mean_motion_rev_per_day,perigee_km,apogee_km,l1,l2
STARLINK-1266,45383,53.0539,0.0001379,15.0640752,546.2335079293625,548.1435127051072,1 45383U 20019Z   25323.81235360 -.00013011  00000+0 -85602-3 0  9999,2 45383  53.0539 279.8782 0001379  91.5873 268.5274 15.06407520313445
STARLINK-1267,45384,53.0553,0.0001597,15.06384988,546.1515824257467,548.3635534507457,1 45384U 20019AA  25323.59865506 -.00001247  00000+0 -64872-4 0  9991,2 45384  53.0553 281.4934 0001597  89.9776 270.1396 15.06384988313407
STARLINK-1272,45386,53.0529,0.000701,15.37007568,450.1739539360442,459.75396147875017,1 45386U 20019AC  25323.91668980  .00106396  00000+0  28645-2 0  9991,2 45386  53.0529 273.3397 0007010  76.1380  41.2877 15.37007568  5836
STARLINK-1274,45387,53.0335,0.0003905,15.3143002,468.87010900207133,474.2197105736159,1 45387U 20019AD  25323.53034492  .00070200  00000+0  22712-2 0  9998,2 45387  53.0335 263.1800 0003905  26.4808 333.6391 15.31430020313658
STARLINK-1280,45388,53.0536,0.0007319,15.42779733,432.92104532209396,442.89837449605875,1 45388U 20019AE  25323.91668980  .00144001  00000+0  31875-2 0  9997,2 45388  53.0536 292.0458 0007319  62.6143  41.6319 15.42779733  5843
STARLINK-1283,45389,53.0535,0.0008685,15.33165167,460.43142779794107,472.32034668307733,1 45389U 20019AF  25323.91668980  .00087228  00000+0  26621-2 0  9998,2 45389  53.0535 272.4284 0008685  71.3340 318.5295 15.33165167  5855
STARLINK-1284,45390,53.0549,0.0001329,15.06396157,546.3029558161425,548.1437165935058,1 45390U 20019AG  25323.61699646 -.00000867  00000+0 -39352-4 0  9993,2 45390  53.0549 280.7561 0001329  95.8878 264.2262 15.06396157313417
STARLINK-1297,45395,53.0559,0.0001662,15.06387026,546.1003221260089,548.4023212041302,1 45395U 20019AM  25323.58751432 -.00003583  00000+0 -22181-3 0  9995,2 45395  53.0559 280.8871 0001662  94.7395 265.3784 15.06387026312594
STARLINK-1307,45397,53.0552,0.0001614,15.06391202,546.120767063012,548.3562782817307,1 45397U 20019AP  25323.58014194  .00004320  00000+0  30879-3 0  9995,2 45397  53.0552 280.9179 0001614 101.3170 258.8000 15.06391202313235
STARLINK-1255,45399,53.0485,0.0006157,15.33132491,462.2589128677937,470.68736579336473,1 45399U 20019AR  25323.85409219  .00069975  00000+0  21460-2 0  9995,2 45399  53.0485 263.7978 0006157  82.4441 277.7258 15.33132491313480
STARLINK-1260,45404,53.0535,0.0001184,15.06382872,546.4440858040844,548.0840207735037,1 45404U 20019AW  25323.58106248  .00007755  00000+0  53918-3 0  9990,2 45404  53.0535 270.9124 0001184  99.0296 261.0827 15.06382872313267
STARLINK-1263,45405,53.0564,0.000184,15.06385616,545.9813709310511,548.52991542374,1 45405U 20019AX  25323.56633270 -.00000614  00000+0 -22348-4 0  9992,2 45405  53.0564 270.9855 0001840  93.8728 266.2472 15.06385616313264
STARLINK-1265,45406,53.0559,7.93e-05,15.06448406,546.5140361163994,547.6123728688317,1 45406U 20019AY  25323.83902889  .00010350  00000+0  71174-3 0  9994,2 45406  53.0559 269.7579 0000793  79.4182 280.6896 15.06448406313300
STARLINK-1278,45408,53.0538,0.0006305,15.35796287,454.2457903936429,462.86686067714254,1 45408U 20019BA  25323.24371134  .00096697  00000+0  27115-2 0  9997,2 45408  53.0538 296.5503 0006305  54.1451 306.0136 15.35796287312885
STARLINK-1296,45412,53.0555,0.0001329,15.06387795,546.3285809632798,548.169348552713,1 45412U 20019BE  25323.84276689 -.00001897  00000+0 -10856-3 0  9992,2 45412  53.0555 269.7385 0001329  86.2873 273.8268 15.06387795313307
STARLINK-1298,45413,53.0477,0.0008958,15.55477281,394.69304623843345,406.83812811361804,1 45413U 20019BF  25323.80011859  .00038472  00000+0  55730-3 0  9992,2 45413  53.0477 239.4831 0008958  30.0058 330.1464 15.55477281313824
STARLINK-1309,45414,53.0544,0.0001356,15.06404936,546.2573546374124,548.1355050635866,1 45414U 20019BG  25323.85751334  .00011208  00000+0  77003-3 0  9992,2 45414  53.0544 269.6746 0001356  93.6230 266.4914 15.06404936313297
STARLINK-1316,45415,53.0558,0.0001392,15.06382387,546.3015237389718,548.229555806045,1 45415U 20019BH  25323.81697642  .00000990  00000+0  85415-4 0  9993,2 45415  53.0558 269.8543 0001392  97.3090 262.8057 15.06382387313322
STARLINK-1318,45416,53.0501,0.00059,15.62962345,375.11861831383067,383.09216433559504,1 45416U 20019BJ  25323.05654680  .00055499  00000+0  60248-3 0  9995,2 45416  53.0501 233.6239 0005900  99.7747 260.3933 15.62962345313759
STARLINK-1286,45417,53.0546,0.0004448,15.381926,448.4161992611289,454.4918034159191,1 45417U 20019BK  25323.64424891  .00066021  00000+0  17243-2 0  9999,2 45417  53.0546 294.8880 0004448  60.4335 299.7111 15.38192600313211
STARLINK-1308,45419,53.054,0.0001171,15.06401473,546.3960856216236,548.0180011965895,1 45419U 20019BM  25323.65201878  .00000076  00000+0  23973-4 0  9997,2 45419  53.0540 300.5942 0001171  82.4034 277.7088 15.06401473312888
STARLINK-1329,45531,53.0544,0.0001378,15.06386743,546.2978704016487,548.2065076621457,1 45531U 20025A   25323.08991854 -.00004255  00000+0 -26703-3 0  9994,2 45531  53.0544 243.1189 0001378  76.7169 283.3973 15.06386743308429
STARLINK-1338,45532,53.0543,0.0001322,15.06386738,546.3366679035853,548.1677408092164,1 45532U 20025B   25323.76444728  .00010381  00000+0  71503-3 0  9996,2 45532  53.0543 240.0904 0001322 100.0485 260.0653 15.06386738308523
STARLINK-1350,45535,53.073,0.0002401,15.3295541,465.3567200877287,468.64375498919435,1 45535U 20025E   25323.65724115  .00009926  00000+0  31855-3 0  9997,2 45535  53.0730 188.6626 0002401  95.6669 264.4606 15.32955410309260
STARLINK-1362,45538,53.0542,0.0001433,15.06393476,546.2391478171485,548.223958444476,1 45538U 20025H   25323.79663610  .00007707  00000+0  53583-3 0  9994,2 45538  53.0542 239.6635 0001433  99.7341 260.3810 15.06393476308537
STARLINK-1368,45540,53.0554,0.0001923,15.06398996,545.8828899359614,548.5463801748037,1 45540U 20025K   25323.80129821  .00014962  00000+0  10213-2 0  9993,2 45540  53.0554 239.9250 0001923  90.4461 269.6748 15.06398996308527
STARLINK-1371,45542,53.0536,0.0001941,15.06388049,545.9039690095206,548.5924035388325,1 45542U 20025M   25323.50642566 -.00000280  00000+0  10417-6 0  9997,2 45542  53.0536 241.2480 0001941  85.4828 274.6383 15.06388049308485
STARLINK-1372,45543,53.055,0.0001521,15.06384882,546.2045402551985,548.3112453815929,1 45543U 20025N   25323.07885536 -.00005084  00000+0 -32277-3 0  9999,2 45543  53.0550 243.1694 0001521  82.2659 277.8502 15.06384882307513
STARLINK-1373,45544,53.0532,0.0001113,15.0639377,546.4598586371249,548.0014454764723,1 45544U 20025P   25323.82709134 -.00006984  00000+0 -45049-3 0  9993,2 45544  53.0532 239.8091 0001113  86.6068 273.5048 15.06393770308533
STARLINK-1294,45551,53.0447,0.0006288,15.63362675,373.7035628900139,382.20002015423324,1 45551U 20025W   25323.56859907  .00074543  00000+0  79275-3 0  9998,2 45551  53.0447 166.6123 0006288 120.0054 240.1584 15.63362675309545
STARLINK-1325,45554,53.0515,0.0003514,15.68575809,360.6054999165581,365.3431529567779,1 45554U 20025Z   25323.91668980  .00241176  00000+0  20304-2 0  9995,2 45554  53.0515 157.4409 0003514 252.7988 294.4021 15.68575809  5931
STARLINK-1327,45555,53.0546,0.0001562,15.06402222,546.1230094556631,548.2864862176875,1 45555U 20025AA  25323.00329717  .00005675  00000+0  39953-3 0  9991,2 45555  53.0546 223.5087 0001562  84.4136 275.7032 15.06402222308681
STARLINK-1356,45564,53.0543,0.0001434,15.0639164,546.2440815952641,548.2302789101605,1 45564U 20025AK  25323.73680578  .00010224  00000+0  70441-3 0  9999,2 45564  53.0543 220.2145 0001434  94.8217 265.2936 15.06391640308790
STARLINK-1357,45565,53.0596,0.0009528,15.35294237,453.53124814059083,466.56209094126916,1 45565U 20025AL  25323.67797795  .00063244  00000+0  18125-2 0  9993,2 45565  53.0596 201.8259 0009528  78.0694 282.1375 15.35294237309056
STARLINK-1361,45567,53.0543,0.0001651,15.0638053,546.1278464278166,548.4146162258003,1 45567U 20025AN  25323.75523377  .00007495  00000+0  52181-3 0  9994,2 45567  53.0543 220.1303 0001651  91.2330 268.8848 15.06380530308805
STARLINK-1363,45568,53.0526,0.0005766,15.44784618,428.08427171196035,435.9377343890783,1 45568U 20025AP  25323.71845654  .00081076  00000+0  16952-2 0  9998,2 45568  53.0526 212.9532 0005766 124.6670 235.4880 15.44784618308891
STARLINK-1366,45569,53.0521,0.0005119,15.42731628,434.5621929619674,441.54060664568624,1 45569U 20025AQ  25323.69852914  .00019064  00000+0  43789-3 0  9990,2 45569  53.0521 212.7068 0005119 124.4597 235.6892 15.42731628308893
STARLINK-1376,45570,53.054,0.0001426,15.06400505,546.2224557027903,548.1975646700948,1 45570U 20025AR  25323.68520041 -.00000863  00000+0 -39017-4 0  9993,2 45570  53.0540 220.4494 0001426  91.0159 269.0994 15.06400505308784
STARLINK-1320,45572,53.0553,0.0009959,15.45094512,424.31906198404704,437.8817010005032,1 45572U 20025AT  25323.81389963  .00023404  00000+0  49363-3 0  9994,2 45572  53.0553 158.0847 0009959  87.8554 272.3592 15.45094512309691
STARLINK-1321,45573,53.0547,0.0001608,15.06385327,546.1429256555575,548.3701322144616,1 45573U 20025AU  25323.67137955  .00003293  00000+0  23996-3 0  9999,2 45573  53.0547 210.5104 0001608  89.8950 270.2223 15.06385327308624
STARLINK-1328,45576,53.0473,0.0009587,15.75537929,336.6572267447118,349.54452825102635,1 45576U 20025AX  25323.91668980  .00130165  00000+0  82725-3 0  9990,2 45576  53.0473 176.6179 0009587 110.1393 272.6744 15.75537929  5915
STARLINK-1331,45578,53.0542,0.0001433,15.06387316,546.2580248250961,548.2428408633477,1 45578U 20025AZ  25323.71560654  .00002309  00000+0  17389-3 0  9991,2 45578  53.0542 210.3121 0001433  89.4972 270.6181 15.06387316308949
STARLINK-1333,45580,53.0536,0.0001551,15.06401491,546.132867389214,548.281109094366,1 45580U 20025BB  25323.72205441  .00004771  00000+0  33896-3 0  9991,2 45580  53.0536 220.2799 0001551  95.9148 264.2018 15.06401491308796
